{
  "links" : {
    "next" : "https://api.nasa.gov/neo/rest/v1/feed?start_date=1996-09-09&end_date=1996-09-09&detailed=true&api_key=t0TVs3DtDT2H8Oy2Zy8m2eVrNsAVKAexjcZXUckd",
    "prev" : "https://api.nasa.gov/neo/rest/v1/feed?start_date=1996-09-07&end_date=1996-09-07&detailed=true&api_key=t0TVs3DtDT2H8Oy2Zy8m2eVrNsAVKAexjcZXUckd",
    "self" : "https://api.nasa.gov/neo/rest/v1/feed?start_date=1996-09-08&end_date=1996-09-08&detailed=true&api_key=t0TVs3DtDT2H8Oy2Zy8m2eVrNsAVKAexjcZXUckd"
  },
  "element_count" : 6,
  "near_earth_objects" : {
    "1996-09-08" : [ {
      "links" : {
        "self" : "https://api.nasa.gov/neo/rest/v1/neo/3645649?api_key=t0TVs3DtDT2H8Oy2Zy8m2eVrNsAVKAexjcZXUckd"
      },
      "neo_reference_id" : "3645649",
      "name" : "(2013 PY38)",
      "nasa_jpl_url" : "http://ssd.jpl.nasa.gov/sbdb.cgi?sstr=3645649",
      "absolute_magnitude_h" : 24.7,
      "estimated_diameter" : {
        "kilometers" : {
          "estimated_diameter_min" : 0.0305179233,
          "estimated_diameter_max" : 0.0682401509
        },
        "meters" : {
          "estimated_diameter_min" : 30.5179232594,
          "estimated_diameter_max" : 68.2401509401
        },
        "miles" : {
          "estimated_diameter_min" : 0.0189629525,
          "estimated_diameter_max" : 0.0424024508
        },
        "feet" : {
          "estimated_diameter_min" : 100.1244233463,
          "estimated_diameter_max" : 223.8850168104
        }
      },
      "is_potentially_hazardous_asteroid" : false,
      "close_approach_data" : [ {
        "close_approach_date" : "1996-09-08",
        "epoch_date_close_approach" : 842166000000,
        "relative_velocity" : {
          "kilometers_per_second" : "8.1157311376",
          "kilometers_per_hour" : "29216.6320954004",
          "miles_per_hour" : "18154.0789817225"
        },
        "miss_distance" : {
          "astronomical" : "0.0822995631",
          "lunar" : "32.0145301819",
          "kilometers" : "12311839",
          "miles" : "7650222"
        },
        "orbiting_body" : "Earth"
      } ],
      "orbital_data" : {
        "orbit_id" : "13",
        "orbit_determination_date" : "2017-04-06 08:45:08",
        "orbit_uncertainty" : "3",
        "minimum_orbit_intersection" : ".0285671",
        "jupiter_tisserand_invariant" : "5.865",
        "epoch_osculation" : "2458000.5",
        "eccentricity" : ".2030510455908618",
        "semi_major_axis" : "1.042607694139675",
        "inclination" : "4.22223501558565",
        "ascending_node_longitude" : "146.24487474079",
        "orbital_period" : "388.8479513605899",
        "perihelion_distance" : ".8309051117035368",
        "perihelion_argument" : "296.9358099718218",
        "aphelion_distance" : "1.254310276575814",
        "perihelion_time" : "2458180.935898219437",
        "mean_anomaly" : "192.950326389245",
        "mean_motion" : ".9258117440000645",
        "equinox" : "J2000"
      }
    }, {
      "links" : {
        "self" : "https://api.nasa.gov/neo/rest/v1/neo/3684006?api_key=t0TVs3DtDT2H8Oy2Zy8m2eVrNsAVKAexjcZXUckd"
      },
      "neo_reference_id" : "3684006",
      "name" : "(2014 QV296)",
      "nasa_jpl_url" : "http://ssd.jpl.nasa.gov/sbdb.cgi?sstr=3684006",
      "absolute_magnitude_h" : 23.8,
      "estimated_diameter" : {
        "kilometers" : {
          "estimated_diameter_min" : 0.046190746,
          "estimated_diameter_max" : 0.1032856481
        },
        "meters" : {
          "estimated_diameter_min" : 46.1907460282,
          "estimated_diameter_max" : 103.2856480504
        },
        "miles" : {
          "estimated_diameter_min" : 0.0287015901,
          "estimated_diameter_max" : 0.0641787064
        },
        "feet" : {
          "estimated_diameter_min" : 151.544447199,
          "estimated_diameter_max" : 338.8636855496
        }
      },
      "is_potentially_hazardous_asteroid" : false,
      "close_approach_data" : [ {
        "close_approach_date" : "1996-09-08",
        "epoch_date_close_approach" : 842166000000,
        "relative_velocity" : {
          "kilometers_per_second" : "24.5237445454",
          "kilometers_per_hour" : "88285.4803632913",
          "miles_per_hour" : "54857.1641735129"
        },
        "miss_distance" : {
          "astronomical" : "0.4754645954",
          "lunar" : "184.9557189941",
          "kilometers" : "71128488",
          "miles" : "44197196"
        },
        "orbiting_body" : "Earth"
      } ],
      "orbital_data" : {
        "orbit_id" : "10",
        "orbit_determination_date" : "2017-04-06 08:39:06",
        "orbit_uncertainty" : "6",
        "minimum_orbit_intersection" : ".00972154",
        "jupiter_tisserand_invariant" : "5.302",
        "epoch_osculation" : "2458000.5",
        "eccentricity" : ".3412490371939675",
        "semi_major_axis" : "1.179422105070707",
        "inclination" : "5.859304230392112",
        "ascending_node_longitude" : "341.9028084819952",
        "orbital_period" : "467.8453546903667",
        "perihelion_distance" : ".7769454472700461",
        "perihelion_argument" : "255.03541941",
        "aphelion_distance" : "1.581898762871369",
        "perihelion_time" : "2458221.448305529093",
        "mean_anomaly" : "189.9835849751754",
        "mean_motion" : ".769485036862786",
        "equinox" : "J2000"
      }
    }, {
      "links" : {
        "self" : "https://api.nasa.gov/neo/rest/v1/neo/2481984?api_key=t0TVs3DtDT2H8Oy2Zy8m2eVrNsAVKAexjcZXUckd"
      },
      "neo_reference_id" : "2481984",
      "name" : "481984 Cernunnos (2009 KL2)",
      "nasa_jpl_url" : "http://ssd.jpl.nasa.gov/sbdb.cgi?sstr=2481984",
      "absolute_magnitude_h" : 18.0,
      "estimated_diameter" : {
        "kilometers" : {
          "estimated_diameter_min" : 0.6676594135,
          "estimated_diameter_max" : 1.4929318344
        },
        "meters" : {
          "estimated_diameter_min" : 667.6594134952,
          "estimated_diameter_max" : 1492.931834393
        },
        "miles" : {
          "estimated_diameter_min" : 0.4148641974,
          "estimated_diameter_max" : 0.9276645469
        },
        "feet" : {
          "estimated_diameter_min" : 2190.4837101717,
          "estimated_diameter_max" : 4898.07047955
        }
      },
      "is_potentially_hazardous_asteroid" : false,
      "close_approach_data" : [ {
        "close_approach_date" : "1996-09-08",
        "epoch_date_close_approach" : 842166000000,
        "relative_velocity" : {
          "kilometers_per_second" : "7.2652503417",
          "kilometers_per_hour" : "26154.9012301854",
          "miles_per_hour" : "16251.6384893894"
        },
        "miss_distance" : {
          "astronomical" : "0.1873533104",
          "lunar" : "72.8804397583",
          "kilometers" : "28027656",
          "miles" : "17415578"
        },
        "orbiting_body" : "Earth"
      } ],
      "orbital_data" : {
        "orbit_id" : "73",
        "orbit_determination_date" : "2017-04-06 09:18:46",
        "orbit_uncertainty" : "0",
        "minimum_orbit_intersection" : ".161443",
        "jupiter_tisserand_invariant" : "3.498",
        "epoch_osculation" : "2458000.5",
        "eccentricity" : ".4700461410005479",
        "semi_major_axis" : "2.198995093863622",
        "inclination" : "9.460561130701048",
        "ascending_node_longitude" : "173.7526588753051",
        "orbital_period" : "1191.063229994166",
        "perihelion_distance" : "1.165365935913889",
        "perihelion_argument" : "165.8028521931178",
        "aphelion_distance" : "3.232624251813355",
        "perihelion_time" : "2457484.988370940993",
        "mean_anomaly" : "155.813882745882",
        "mean_motion" : ".3022509560653328",
        "equinox" : "J2000"
      }
    } ]
  }
}